CCSDS_OMM_VERS = 2.0
CREATION_DATE  = 
ORIGINATOR     = 

OBJECT_NAME    = STARLINK-36317
OBJECT_ID      = 2026-026R
CENTER_NAME    = EARTH
REF_FRAME      = TEME
TIME_SYSTEM    = UTC
MEAN_ELEMENT_THEORY = SGP/SGP4

EPOCH          = 2026-03-13T14:00:01.000224
MEAN_MOTION    = 15.33368227
ECCENTRICITY   = .00010696
INCLINATION    = 97.2845
RA_OF_ASC_NODE = 127.1650
ARG_OF_PERICENTER = 67.8619
MEAN_ANOMALY   = 331.2043

EPHEMERIS_TYPE = 0
CLASSIFICATION_TYPE = U
NORAD_CAT_ID   = 67736
ELEMENT_SET_NO = 999
REV_AT_EPOCH   = 594
BSTAR          = .3091544E-2
MEAN_MOTION_DOT = .10083E-2
MEAN_MOTION_DDOT = 0

CCSDS_OMM_VERS = 2.0
CREATION_DATE  = 
ORIGINATOR     = 

OBJECT_NAME    = STARLINK-36330
OBJECT_ID      = 2026-026S
CENTER_NAME    = EARTH
REF_FRAME      = TEME
TIME_SYSTEM    = UTC
MEAN_ELEMENT_THEORY = SGP/SGP4

EPOCH          = 2026-03-13T14:00:01.000224
MEAN_MOTION    = 15.33370525
ECCENTRICITY   = .00014976
INCLINATION    = 97.2845
RA_OF_ASC_NODE = 127.1780
ARG_OF_PERICENTER = 91.9619
MEAN_ANOMALY   = 337.1175

EPHEMERIS_TYPE = 0
CLASSIFICATION_TYPE = U
NORAD_CAT_ID   = 67737
ELEMENT_SET_NO = 999
REV_AT_EPOCH   = 594
BSTAR          = .31696835E-2
MEAN_MOTION_DOT = .103424E-2
MEAN_MOTION_DDOT = 0

CCSDS_OMM_VERS = 2.0
CREATION_DATE  = 
ORIGINATOR     = 

OBJECT_NAME    = STARLINK-36327
OBJECT_ID      = 2026-026T
CENTER_NAME    = EARTH
REF_FRAME      = TEME
TIME_SYSTEM    = UTC
MEAN_ELEMENT_THEORY = SGP/SGP4

EPOCH          = 2026-03-13T14:00:01.000224
MEAN_MOTION    = 15.33333508
ECCENTRICITY   = .00010856
INCLINATION    = 97.2844
RA_OF_ASC_NODE = 127.1847
ARG_OF_PERICENTER = 67.1461
MEAN_ANOMALY   = 16.9259

EPHEMERIS_TYPE = 0
CLASSIFICATION_TYPE = U
NORAD_CAT_ID   = 67738
ELEMENT_SET_NO = 999
REV_AT_EPOCH   = 594
BSTAR          = .32043101E-2
MEAN_MOTION_DOT = .104447E-2
MEAN_MOTION_DDOT = 0

CCSDS_OMM_VERS = 2.0
CREATION_DATE  = 
ORIGINATOR     = 

OBJECT_NAME    = STARLINK-36329
OBJECT_ID      = 2026-026U
CENTER_NAME    = EARTH
REF_FRAME      = TEME
TIME_SYSTEM    = UTC
MEAN_ELEMENT_THEORY = SGP/SGP4

EPOCH          = 2026-03-13T14:00:01.000224
MEAN_MOTION    = 15.34441339
ECCENTRICITY   = .00016819
INCLINATION    = 97.2848
RA_OF_ASC_NODE = 127.2231
ARG_OF_PERICENTER = 62.6972
MEAN_ANOMALY   = 110.7886

EPHEMERIS_TYPE = 0
CLASSIFICATION_TYPE = U
NORAD_CAT_ID   = 67739
ELEMENT_SET_NO = 999
REV_AT_EPOCH   = 594
BSTAR          = -.45346634E-1
MEAN_MOTION_DOT = -.1375511E-1
MEAN_MOTION_DDOT = 0

CCSDS_OMM_VERS = 2.0
CREATION_DATE  = 
ORIGINATOR     = 

OBJECT_NAME    = STARLINK-36737
OBJECT_ID      = 2026-026V
CENTER_NAME    = EARTH
REF_FRAME      = TEME
TIME_SYSTEM    = UTC
MEAN_ELEMENT_THEORY = SGP/SGP4

EPOCH          = 2026-03-13T14:00:01.000224
MEAN_MOTION    = 15.33369988
ECCENTRICITY   = .00015864
INCLINATION    = 97.2849
RA_OF_ASC_NODE = 127.1913
ARG_OF_PERICENTER = 99.5469
MEAN_ANOMALY   = 359.5250

EPHEMERIS_TYPE = 0
CLASSIFICATION_TYPE = U
NORAD_CAT_ID   = 67740
ELEMENT_SET_NO = 999
REV_AT_EPOCH   = 594
BSTAR          = .32389997E-2
MEAN_MOTION_DOT = .105718E-2
MEAN_MOTION_DDOT = 0

CCSDS_OMM_VERS = 2.0
CREATION_DATE  = 
ORIGINATOR     = 

OBJECT_NAME    = STARLINK-36740
OBJECT_ID      = 2026-026W
CENTER_NAME    = EARTH
REF_FRAME      = TEME
TIME_SYSTEM    = UTC
MEAN_ELEMENT_THEORY = SGP/SGP4

EPOCH          = 2026-03-13T14:00:01.000224
MEAN_MOTION    = 15.41851237
ECCENTRICITY   = .00014359
INCLINATION    = 97.2855
RA_OF_ASC_NODE = 127.1897
ARG_OF_PERICENTER = 71.4228
MEAN_ANOMALY   = 20.5107

EPHEMERIS_TYPE = 0
CLASSIFICATION_TYPE = U
NORAD_CAT_ID   = 67741
ELEMENT_SET_NO = 999
REV_AT_EPOCH   = 594
BSTAR          = -.46576952E-1
MEAN_MOTION_DOT = -.1782209E-1
MEAN_MOTION_DDOT = 0

CCSDS_OMM_VERS = 2.0
CREATION_DATE  = 
ORIGINATOR     = 

OBJECT_NAME    = STARLINK-36693
OBJECT_ID      = 2026-026X
CENTER_NAME    = EARTH
REF_FRAME      = TEME
TIME_SYSTEM    = UTC
MEAN_ELEMENT_THEORY = SGP/SGP4

EPOCH          = 2026-03-13T14:00:01.000224
MEAN_MOTION    = 15.40268603
ECCENTRICITY   = .00013501
INCLINATION    = 97.2858
RA_OF_ASC_NODE = 127.1830
ARG_OF_PERICENTER = 82.3834
MEAN_ANOMALY   = 354.3631

EPHEMERIS_TYPE = 0
CLASSIFICATION_TYPE = U
NORAD_CAT_ID   = 67742
ELEMENT_SET_NO = 999
REV_AT_EPOCH   = 607
BSTAR          = -.49531771E-1
MEAN_MOTION_DOT = -.1796418E-1
MEAN_MOTION_DDOT = 0

CCSDS_OMM_VERS = 2.0
CREATION_DATE  = 
ORIGINATOR     = 

OBJECT_NAME    = STARLINK-36717
OBJECT_ID      = 2026-026Y
CENTER_NAME    = EARTH
REF_FRAME      = TEME
TIME_SYSTEM    = UTC
MEAN_ELEMENT_THEORY = SGP/SGP4

EPOCH          = 2026-03-13T14:00:01.000224
MEAN_MOTION    = 15.36418338
ECCENTRICITY   = .00018588
INCLINATION    = 97.2848
RA_OF_ASC_NODE = 127.1986
ARG_OF_PERICENTER = 53.9670
MEAN_ANOMALY   = 55.2283

EPHEMERIS_TYPE = 0
CLASSIFICATION_TYPE = U
NORAD_CAT_ID   = 67743
ELEMENT_SET_NO = 999
REV_AT_EPOCH   = 607
BSTAR          = -.81572552E-1
MEAN_MOTION_DOT = -.2550295E-1
MEAN_MOTION_DDOT = 0

CCSDS_OMM_VERS = 2.0
CREATION_DATE  = 
ORIGINATOR     = 

OBJECT_NAME    = STARLINK-36692
OBJECT_ID      = 2026-026Z
CENTER_NAME    = EARTH
REF_FRAME      = TEME
TIME_SYSTEM    = UTC
MEAN_ELEMENT_THEORY = SGP/SGP4

EPOCH          = 2026-03-13T14:00:01.000224
MEAN_MOTION    = 15.37995764
ECCENTRICITY   = .00014293
INCLINATION    = 97.2851
RA_OF_ASC_NODE = 127.1920
ARG_OF_PERICENTER = 76.3487
MEAN_ANOMALY   = 12.7510

EPHEMERIS_TYPE = 0
CLASSIFICATION_TYPE = U
NORAD_CAT_ID   = 67744
ELEMENT_SET_NO = 999
REV_AT_EPOCH   = 594
BSTAR          = -.52198369E-1
MEAN_MOTION_DOT = -.1760593E-1
MEAN_MOTION_DDOT = 0

CCSDS_OMM_VERS = 2.0
CREATION_DATE  = 
ORIGINATOR     = 

OBJECT_NAME    = 2026-027A
OBJECT_ID      = 2026-027A
CENTER_NAME    = EARTH
REF_FRAME      = TEME
TIME_SYSTEM    = UTC
MEAN_ELEMENT_THEORY = SGP/SGP4

EPOCH          = 2026-03-13T14:14:17.702016
MEAN_MOTION    = 15.17791494
ECCENTRICITY   = .00104524
INCLINATION    = 97.4901
RA_OF_ASC_NODE = 201.5655
ARG_OF_PERICENTER = 180.9414
MEAN_ANOMALY   = 179.1802

EPHEMERIS_TYPE = 0
CLASSIFICATION_TYPE = U
NORAD_CAT_ID   = 67746
ELEMENT_SET_NO = 999
REV_AT_EPOCH   = 445
BSTAR          = .50079064E-3
MEAN_MOTION_DOT = .10074E-3
MEAN_MOTION_DDOT = 0

CCSDS_OMM_VERS = 2.0
CREATION_DATE  = 
ORIGINATOR     = 

OBJECT_NAME    = 2026-027B
OBJECT_ID      = 2026-027B
CENTER_NAME    = EARTH
REF_FRAME      = TEME
TIME_SYSTEM    = UTC
MEAN_ELEMENT_THEORY = SGP/SGP4

EPOCH          = 2026-03-13T14:11:29.585760
MEAN_MOTION    = 15.17891135
ECCENTRICITY   = .00105786
INCLINATION    = 97.4896
RA_OF_ASC_NODE = 201.5660
ARG_OF_PERICENTER = 183.3088
MEAN_ANOMALY   = 176.8078

EPHEMERIS_TYPE = 0
CLASSIFICATION_TYPE = U
NORAD_CAT_ID   = 67747
ELEMENT_SET_NO = 999
REV_AT_EPOCH   = 445
BSTAR          = .49565306E-3
MEAN_MOTION_DOT = .9998E-4
MEAN_MOTION_DDOT = 0

CCSDS_OMM_VERS = 2.0
CREATION_DATE  = 
ORIGINATOR     = 

OBJECT_NAME    = 2026-027C
OBJECT_ID      = 2026-027C
CENTER_NAME    = EARTH
REF_FRAME      = TEME
TIME_SYSTEM    = UTC
MEAN_ELEMENT_THEORY = SGP/SGP4

EPOCH          = 2026-03-13T14:09:28.412352
MEAN_MOTION    = 15.17872574
ECCENTRICITY   = .00109483
INCLINATION    = 97.4909
RA_OF_ASC_NODE = 201.5723
ARG_OF_PERICENTER = 185.3382
MEAN_ANOMALY   = 174.7737

EPHEMERIS_TYPE = 0
CLASSIFICATION_TYPE = U
NORAD_CAT_ID   = 67748
ELEMENT_SET_NO = 999
REV_AT_EPOCH   = 445
BSTAR          = .3514071E-3
MEAN_MOTION_DOT = .7063E-4
MEAN_MOTION_DDOT = 0

CCSDS_OMM_VERS = 2.0
CREATION_DATE  = 
ORIGINATOR     = 

OBJECT_NAME    = 2026-027D
OBJECT_ID      = 2026-027D
CENTER_NAME    = EARTH
REF_FRAME      = TEME
TIME_SYSTEM    = UTC
MEAN_ELEMENT_THEORY = SGP/SGP4

EPOCH          = 2026-03-13T15:37:24.227904
MEAN_MOTION    = 15.18263221
ECCENTRICITY   = .00105257
INCLINATION    = 97.4902
RA_OF_ASC_NODE = 201.6423
ARG_OF_PERICENTER = 190.6499
MEAN_ANOMALY   = 169.4513

EPHEMERIS_TYPE = 0
CLASSIFICATION_TYPE = U
NORAD_CAT_ID   = 67749
ELEMENT_SET_NO = 999
REV_AT_EPOCH   = 441
BSTAR          = .60912327E-3
MEAN_MOTION_DOT = .12439E-3
MEAN_MOTION_DDOT = 0

CCSDS_OMM_VERS = 2.0
CREATION_DATE  = 
ORIGINATOR     = 

OBJECT_NAME    = 2026-027E
OBJECT_ID      = 2026-027E
CENTER_NAME    = EARTH
REF_FRAME      = TEME
TIME_SYSTEM    = UTC
MEAN_ELEMENT_THEORY = SGP/SGP4

EPOCH          = 2026-03-13T14:03:00.325152
MEAN_MOTION    = 15.18200614
ECCENTRICITY   = .00098012
INCLINATION    = 97.4914
RA_OF_ASC_NODE = 201.5808
ARG_OF_PERICENTER = 191.4042
MEAN_ANOMALY   = 168.6972

EPHEMERIS_TYPE = 0
CLASSIFICATION_TYPE = U
NORAD_CAT_ID   = 67750
ELEMENT_SET_NO = 999
REV_AT_EPOCH   = 445
BSTAR          = .52177857E-3
MEAN_MOTION_DOT = .10622E-3
MEAN_MOTION_DDOT = 0

CCSDS_OMM_VERS = 2.0
CREATION_DATE  = 
ORIGINATOR     = 

OBJECT_NAME    = 2026-027F
OBJECT_ID      = 2026-027F
CENTER_NAME    = EARTH
REF_FRAME      = TEME
TIME_SYSTEM    = UTC
MEAN_ELEMENT_THEORY = SGP/SGP4

EPOCH          = 2026-03-12T19:00:38.279808
MEAN_MOTION    = 15.17898571
ECCENTRICITY   = .00092398
INCLINATION    = 97.4916
RA_OF_ASC_NODE = 200.8018
ARG_OF_PERICENTER = 190.5872
MEAN_ANOMALY   = 169.5169

EPHEMERIS_TYPE = 0
CLASSIFICATION_TYPE = U
NORAD_CAT_ID   = 67751
ELEMENT_SET_NO = 999
REV_AT_EPOCH   = 433
BSTAR          = .19459815E-3
MEAN_MOTION_DOT = .3881E-4
MEAN_MOTION_DDOT = 0

